NORAD_CAT_ID,OBJECT_NAME,OBJECT_TYPE,EPOCH,MEAN_MOTION,ECCENTRICITY,INCLINATION,RA_OF_ASC_NODE,ARG_OF_PERICENTER,MEAN_ANOMALY,BSTAR,MEAN_MOTION_DOT,MEAN_MOTION_DDOT,TLE_LINE0,TLE_LINE1,TLE_LINE2,SEMIMAJOR_AXIS,PERIOD,APOGEE,PERIGEE,DECAYED
49426.0,STARLINK-3114,PAYLOAD,2022-08-17 10:56:47,15.08843553,0.0001621999999999,53.2181,306.1082,56.4389,303.6758,0.00012394,1.685e-05,0.0,0 STARLINK-3114,1 49426U 21104U   22229.45610276  .00001685  00000-0  12394-3 0  9993,2 49426  53.2181 306.1082 0001622  56.4389 303.6758 15.08843553 42339,6917.87,95.437,540.857,538.612,0.0
49426.0,STARLINK-3114,PAYLOAD,2022-08-17 22:04:30,15.0883315,0.0001683,53.2172,304.0265,49.091,311.0228,8.0896e-05,9.99e-06,0.0,0 STARLINK-3114,1 49426U 21104U   22229.91979187  .00000999  00000-0  80896-4 0  9993,2 49426  53.2172 304.0265 0001683  49.0910 311.0228 15.08833150 43488,6917.901,95.438,540.931,538.602,0.0
49426.0,STARLINK-3114,PAYLOAD,2022-08-18 10:47:34,15.08840999,0.0001607,53.2173,301.6474,49.6845,310.4288,0.00014642,2.043e-05,0.0,0 STARLINK-3114,1 49426U 21104U   22230.44970714  .00002043  00000-0  14642-3 0  9997,2 49426  53.2173 301.6474 0001607  49.6845 310.4288 15.08840999 42480,6917.877,95.437,540.854,538.631,0.0
49426.0,STARLINK-3114,PAYLOAD,2022-08-18 13:58:20,15.08843632,0.0001609,53.2173,301.0527,50.1726,309.9408,0.00016722,2.375e-05,0.0,0 STARLINK-3114,1 49426U 21104U   22230.58218530  .00002375  00000-0  16722-3 0  9992,2 49426  53.2173 301.0527 0001609  50.1726 309.9408 15.08843632 43586,6917.869000000002,95.437,540.847,538.621,0.0
49426.0,STARLINK-3114,PAYLOAD,2022-08-19 10:38:21,15.08842039,0.0001756,53.2151,297.1864,50.353,309.7616,-5.2339e-06,-3.71e-06,0.0,0 STARLINK-3114,1 49426U 21104U   22231.44329959 -.00000371  00000-0 -52339-5 0  9998,2 49426  53.2151 297.1864 0001756  50.3530 309.7616 15.08842039 42633,6917.874,95.437,540.9540000000002,538.524,0.0
49426.0,STARLINK-3114,PAYLOAD,2022-08-20 10:29:08,15.08837532,0.0001781999999999,53.2154,292.7266,50.1198,309.9951,-0.00010657,-1.984e-05,0.0,0 STARLINK-3114,1 49426U 21104U   22232.43690042 -.00001984  00000-0 -10657-3 0  9998,2 49426  53.2154 292.7266 0001782  50.1198 309.9951 15.08837532 42782,6917.888000000001,95.438,540.986,538.52,0.0
49426.0,STARLINK-3114,PAYLOAD,2022-08-20 13:39:54,15.08831041,0.0001732,53.2154,292.131,51.1303,308.9843,-0.00024809,-4.233e-05,0.0,0 STARLINK-3114,1 49426U 21104U   22232.56938276 -.00004233  00000-0 -24809-3 0  9990,2 49426  53.2154 292.1310 0001732  51.1303 308.9843 15.08831041 42801,6917.908,95.438,540.971,538.575,0.0
49426.0,STARLINK-3114,PAYLOAD,2022-08-21 10:19:56,15.0882883,0.0001844999999999,53.2163,288.2662,58.9573,301.16,0.00019966,2.89e-05,0.0,0 STARLINK-3114,1 49426U 21104U   22233.43051006  .00002890  00000-0  19966-3 0  9997,2 49426  53.2163 288.2662 0001845  58.9573 301.1600 15.08828830 44019,6917.915,95.438,541.056,538.503,0.0
49426.0,STARLINK-3114,PAYLOAD,2022-08-21 15:06:04,15.08848411,0.0001708,53.2169,287.3741,56.5613,303.5542,-0.00012528,-2.282e-05,0.0,0 STARLINK-3114,1 49426U 21104U   22233.62922171 -.00002282  00000-0 -12528-3 0  9992,2 49426  53.2169 287.3741 0001708  56.5613 303.5542 15.08848411 44041,6917.855,95.437,540.901,538.538,0.0
49426.0,STARLINK-3114,PAYLOAD,2022-08-22 10:10:44,15.088196,0.0001724,53.2171,283.806,55.1324,304.983,4.8146e-05,4.78e-06,0.0,0 STARLINK-3114,1 49426U 21104U   22234.42412320  .00000478  00000-0  48146-4 0  9990,2 49426  53.2171 283.8060 0001724  55.1324 304.9830 15.08819600 44167,6917.943,95.439,541.0,538.615,0.0
49426.0,STARLINK-3114,PAYLOAD,2022-08-22 19:43:03,15.08821998,0.0001733,53.2171,282.022,53.8594,306.2558,3.9399e-05,3.39e-06,0.0,0 STARLINK-3114,1 49426U 21104U   22234.82156575  .00000339  00000-0  39399-4 0  9997,2 49426  53.2171 282.0220 0001733  53.8594 306.2558 15.08821998 43142,6917.935,95.439,540.999,538.602,0.0
49426.0,STARLINK-3114,PAYLOAD,2022-08-23 10:01:31,15.08825183,0.0001724,53.2169,279.3459,53.9691,306.1461,3.7128e-05,3.03e-06,0.0,0 STARLINK-3114,1 49426U 21104U   22235.41772944  .00000303  00000-0  37128-4 0  9996,2 49426  53.2169 279.3459 0001724  53.9691 306.1461 15.08825183 43233,6917.926,95.438,540.9830000000002,538.5980000000002,0.0
49426.0,STARLINK-3114,PAYLOAD,2022-08-23 13:12:18,15.08825611,0.0001728,53.2168,278.7511,52.9603,307.1547,5.2160000000000005e-06,-2.05e-06,0.0,0 STARLINK-3114,1 49426U 21104U   22235.55021050 -.00000205  00000-0  52160-5 0  9992,2 49426  53.2168 278.7511 0001728  52.9603 307.1547 15.08825611 44334,6917.924,95.438,540.985,538.594,0.0
49426.0,STARLINK-3114,PAYLOAD,2022-08-24 11:27:42,15.08826438,0.0001754,53.2167,274.5879,52.0978,308.0173,0.00010289,1.349e-05,0.0,0 STARLINK-3114,1 49426U 21104U   22236.47757602  .00001349  00000-0  10289-3 0  9996,2 49426  53.2167 274.5879 0001754  52.0978 308.0173 15.08826438 43397,6917.922,95.438,541.0,538.573,0.0
49426.0,STARLINK-3114,PAYLOAD,2022-08-24 13:03:05,15.08826146,0.0001757,53.2166,274.2905,51.7924,308.3226,9.8196e-05,1.275e-05,0.0,0 STARLINK-3114,1 49426U 21104U   22236.54381699  .00001275  00000-0  98196-4 0  9995,2 49426  53.2166 274.2905 0001757  51.7924 308.3226 15.08826146 43403,6917.9230000000025,95.438,541.003,538.572,0.0
49426.0,STARLINK-3114,PAYLOAD,2022-08-25 11:18:29,15.08832961,0.0001823,53.2166,270.1272,51.7524,308.3632,8.987e-05,1.142e-05,0.0,0 STARLINK-3114,1 49426U 21104U   22237.47117940  .00001142  00000-0  89870-4 0  9996,2 49426  53.2166 270.1272 0001823  51.7524 308.3632 15.08832961 44623,6917.901999999999,95.438,541.028,538.506,0.0
49426.0,STARLINK-3114,PAYLOAD,2022-08-25 19:15:25,15.08834285,0.0001853,53.2166,268.6403,51.7581,308.3578,8.9551e-05,1.137e-05,0.0,0 STARLINK-3114,1 49426U 21104U   22237.80238016  .00001137  00000-0  89551-4 0  9991,2 49426  53.2166 268.6403 0001853  51.7581 308.3578 15.08834285 43592,6917.898,95.438,541.045,538.481,0.0
49426.0,STARLINK-3114,PAYLOAD,2022-08-26 11:09:16,15.08839178,0.0001871,53.2167,265.6666,52.0816,308.0345,8.404e-05,1.05e-05,0.0,0 STARLINK-3114,1 49426U 21104U   22238.46477890  .00001050  00000-0  84040-4 0  9991,2 49426  53.2167 265.6666 0001871  52.0816 308.0345 15.08839178 43692,6917.8830000000025,95.438,541.0419999999998,538.4540000000002,0.0
49426.0,STARLINK-3114,PAYLOAD,2022-08-26 19:06:12,15.08840966,0.0001881,53.2167,264.1797,52.4487,307.6676,9.4379e-05,1.214e-05,0.0,0 STARLINK-3114,1 49426U 21104U   22238.79597786  .00001214  00000-0  94379-4 0  9992,2 49426  53.2167 264.1797 0001881  52.4487 307.6676 15.08840966 43745,6917.877,95.437,541.044,538.441,0.0
49426.0,STARLINK-3114,PAYLOAD,2022-08-27 11:00:03,15.08846131,0.0001885999999999,53.2166,261.2061,53.2139,306.9026,9.9503e-05,1.296e-05,0.0,0 STARLINK-3114,1 49426U 21104U   22239.45837406  .00001296  00000-0  99503-4 0  9996,2 49426  53.2166 261.2061 0001886  53.2139 306.9026 15.08846131 43846,6917.861999999999,95.437,541.031,538.422,0.0
49426.0,STARLINK-3114,PAYLOAD,2022-08-28 01:18:31,15.088499800000005,0.0001892,53.2166,258.5297,53.5178,306.5988,0.00011979,1.619e-05,0.0,0 STARLINK-3114,1 49426U 21104U   22240.05452899  .00001619  00000-0  11979-3 0  9992,2 49426  53.2166 258.5297 0001892  53.5178 306.5988 15.08849980 45018,6917.85,95.437,541.024,538.406,0.0
49426.0,STARLINK-3114,PAYLOAD,2022-08-28 10:50:49,15.08854214,0.0001919,53.2166,256.7455,54.1646,305.9525,0.00012913,1.768e-05,0.0,0 STARLINK-3114,1 49426U 21104U   22240.45196452  .00001768  00000-0  12913-3 0  9990,2 49426  53.2166 256.7455 0001919  54.1646 305.9525 15.08854214 43992,6917.837,95.437,541.029,538.374,0.0
49426.0,STARLINK-3114,PAYLOAD,2022-08-28 12:26:12,15.08854298,0.0001921999999999,53.2165,256.4481,54.1262,305.9908,0.00012903,1.767e-05,0.0,0 STARLINK-3114,1 49426U 21104U   22240.51820413  .00001767  00000-0  12903-3 0  9996,2 49426  53.2165 256.4481 0001922  54.1262 305.9908 15.08854298 44005,6917.837,95.437,541.031,538.372,0.0
49426.0,STARLINK-3114,PAYLOAD,2022-08-29 05:55:27,15.08846943,0.0001836,53.2163,253.1766,57.0704,303.0465,4.1982e-05,3.8e-06,0.0,0 STARLINK-3114,1 49426U 21104U   22241.24684549  .00000380  00000-0  41982-4 0  9995,2 49426  53.2163 253.1766 0001836  57.0704 303.0465 15.08846943 45196,6917.859,95.437,540.994,538.4540000000002,0.0
49426.0,STARLINK-3114,PAYLOAD,2022-08-29 12:17:00,15.08843474,0.0001933,53.2164,251.9877,52.8549,307.262,-7.0436e-07,-2.99e-06,0.0,0 STARLINK-3114,1 49426U 21104U   22241.51180818 -.00000299  00000-0 -70436-6 0  9994,2 49426  53.2164 251.9877 0001933  52.8549 307.2620 15.08843474 44154,6917.87,95.437,541.072,538.398,0.0
49426.0,STARLINK-3114,PAYLOAD,2022-08-30 10:32:23,15.08847199,0.0001964,53.2164,247.8248,52.1151,308.0019,-3.9222e-06,-3.51e-06,0.0,0 STARLINK-3114,1 49426U 21104U   22242.43916189 -.00000351  00000-0 -39222-5 0  9990,2 49426  53.2164 247.8248 0001964  52.1151 308.0019 15.08847199 44290,6917.858,95.437,541.082,538.365,0.0
49426.0,STARLINK-3114,PAYLOAD,2022-08-31 08:47:48,15.08826968,0.0001971,53.2165,243.6618,51.9614,308.1555,-2.558800000000001e-05,-6.95e-06,0.0,0 STARLINK-3114,1 49426U 21104U   22243.36653404 -.00000695  00000-0 -25588-4 0  9991,2 49426  53.2165 243.6618 0001971  51.9614 308.1555 15.08826968 44438,6917.92,95.438,541.149,538.422,0.0
49426.0,STARLINK-3114,PAYLOAD,2022-09-01 08:38:35,15.08833411,0.0001965,53.2164,239.2011,52.1907,307.9263,-1.7938e-05,-5.74e-06,0.0,0 STARLINK-3114,1 49426U 21104U   22244.36013554 -.00000574  00000-0 -17938-4 0  9994,2 49426  53.2164 239.2011 0001965  52.1907 307.9263 15.08833411 44586,6917.901,95.438,541.125,538.406,0.0
49426.0,STARLINK-3114,PAYLOAD,2022-09-02 08:29:22,15.08832828,0.0001989,53.2165,234.7408,54.9154,305.2025,0.00011999,1.622e-05,0.0,0 STARLINK-3114,1 49426U 21104U   22245.35373700  .00001622  00000-0  11999-3 0  9999,2 49426  53.2165 234.7408 0001989  54.9154 305.2025 15.08832828 44732,6917.901999999999,95.438,541.143,538.391,0.0
